[{"OBJECT_NAME":"STARLINK-30497","OBJECT_ID":"2023-153W","EPOCH":"2026-03-08T17:33:50.388480","MEAN_MOTION":15.26752453,"ECCENTRICITY":0.00016398,"INCLINATION":43.0056,"RA_OF_ASC_NODE":72.1224,"ARG_OF_PERICENTER":251.9212,"MEAN_ANOMALY":108.1461,"EPHEMERIS_TYPE":0,"CLASSIFICATION_TYPE":"U","NORAD_CAT_ID":58011,"ELEMENT_SET_NO":999,"REV_AT_EPOCH":13475,"BSTAR":8.7316504e-5,"MEAN_MOTION_DOT":2.084e-5,"MEAN_MOTION_DDOT":0},{"OBJECT_NAME":"OBJECT A","OBJECT_ID":"2024-203A","EPOCH":"2026-03-09T23:31:20.812800","MEAN_MOTION":15.27300571,"ECCENTRICITY":0.00108989,"INCLINATION":97.4288,"RA_OF_ASC_NODE":139.5608,"ARG_OF_PERICENTER":322.6893,"MEAN_ANOMALY":37.3588,"EPHEMERIS_TYPE":0,"CLASSIFICATION_TYPE":"U","NORAD_CAT_ID":61869,"ELEMENT_SET_NO":999,"REV_AT_EPOCH":7380,"BSTAR":0.00061472876,"MEAN_MOTION_DOT":0.00016411,"MEAN_MOTION_DDOT":0}]
